{"fetched_at":"2026-03-29T02:12:04Z","count":15717,"tles":[{"name":"BEIDOU-3 M17 (C36)","line1":"1 43706U 18093A   26086.20252153 -.00000037  00000+0  00000+0 0  9992","line2":"2 43706  54.1688 185.0778 0007874 293.7414  97.3651  1.86228280 50010","category":"GPS"}]}